[{"OBJECT_NAME":"TEVEL2-5","OBJECT_ID":"2025-052E","EPOCH":"2026-03-09T23:11:54.246048","MEAN_MOTION":15.30817434,"ECCENTRICITY":0.00047002,"INCLINATION":97.4013,"RA_OF_ASC_NODE":325.3677,"ARG_OF_PERICENTER":95.3936,"MEAN_ANOMALY":264.7842,"EPHEMERIS_TYPE":0,"CLASSIFICATION_TYPE":"U","NORAD_CAT_ID":63214,"ELEMENT_SET_NO":999,"REV_AT_EPOCH":5491,"BSTAR":0.00071764727,"MEAN_MOTION_DOT":0.00021339,"MEAN_MOTION_DDOT":0},{"OBJECT_NAME":"STARLINK-33706","OBJECT_ID":"2025-070B","EPOCH":"2026-03-09T13:34:40.616832","MEAN_MOTION":15.27573082,"ECCENTRICITY":0.000198,"INCLINATION":42.999,"RA_OF_ASC_NODE":260.8327,"ARG_OF_PERICENTER":301.9874,"MEAN_ANOMALY":58.0785,"EPHEMERIS_TYPE":0,"CLASSIFICATION_TYPE":"U","NORAD_CAT_ID":63461,"ELEMENT_SET_NO":999,"REV_AT_EPOCH":5295,"BSTAR":0.0012348136,"MEAN_MOTION_DOT":0.00033867,"MEAN_MOTION_DDOT":0}]
